ONEWEB-0520             
1 54138U 22138AB  25294.68602839 -.00000008  00000+0 -53315-4 0  9991
2 54138  87.9263 352.4016 0001920 108.7356 251.3985 13.19724060145366
ONEWEB-0521             
1 54139U 22138AC  25294.71920392  .00000048  00000+0  87234-4 0  9992
2 54139  87.9260 352.3806 0001663  93.2879 266.8444 13.19724969145316
ONEWEB-0522             
1 54140U 22138AD  25294.69867442 -.00000002  00000+0 -38249-4 0  9991
2 54140  87.9262 352.3858 0001845 105.1340 254.9997 13.19725969145351
ONEWEB-0523             
1 54141U 22138AE  25294.77537117  .00000072  00000+0  14593-3 0  9994
2 54141  87.9201 321.9907 0002241  73.5526 286.5853 13.20769943147836
ONEWEB-0524             
1 54142U 22138AF  25294.61280699 -.00001266  00000+0 -31457-2 0  9993
2 54142  87.9203 322.0245 0002853  90.9639 269.1821 13.20776017147813
ONEWEB-0525             
1 54143U 22138AG  25294.71762193  .00000033  00000+0  49677-4 0  9993
2 54143  87.9262 352.4041 0001856 109.0148 251.1186 13.19724228145378
ONEWEB-0526             
1 54144U 22138AH  25294.67497528  .00000043  00000+0  74583-4 0  9991
2 54144  87.9262 352.3989 0001924 101.6949 258.4400 13.19724021145349
ONEWEB-0529             
1 54145U 22138AJ  25294.67813022  .00000014  00000+0  14779-5 0  9993
2 54145  87.9246 352.4335 0001935 106.5293 253.6052 13.19723856145363
